start=new Date('2022-04-26T00:00:00.000Z').valueOf();
sats=[{"MEAN_MOTION_DDOT":"0.0000000000000","MEAN_ELEMENT_THEORY":"SGP4","COUNTRY_CODE":"US","ELEMENT_SET_NO":"999","ECCENTRICITY":"0.00020980","EPOCH":"2022-04-25T18:08:44.153376","LAUNCH_DATE":"2020-09-03","BSTAR":"-0.00002327700000","INCLINATION":"53.0550","ARG_OF_PERICENTER":"35.4156","REF_FRAME":"TEME","PERIOD":"95.593","REV_AT_EPOCH":"9182","SEMIMAJOR_AXIS":"6925.396","OBJECT_ID":"2020-062AL","NORAD_CAT_ID":"46359","RCS_SIZE":"LARGE","GP_ID":"202025956","TLE_LINE2":"2 46359  53.0550 199.0199 0002098  35.4156 324.6972 15.06384427 91821","PERIAPSIS":"545.808","RA_OF_ASC_NODE":"199.0199","DECAY_DATE":null,"TIME_SYSTEM":"UTC","MEAN_MOTION_DOT":"-0.00000628","CENTER_NAME":"EARTH","MEAN_ANOMALY":"324.6972","OBJECT_NAME":"STARLINK-1707","TLE_LINE1":"1 46359U 20062AL  22115.75606659 -.00000628  00000-0 -23277-4 0  9995","CLASSIFICATION_TYPE":"U","SITE":"AFETR","FILE":"3416090","MEAN_MOTION":"15.06384427","APOAPSIS":"548.714","EPHEMERIS_TYPE":"0","OBJECT_TYPE":"PAYLOAD"},{"PERIAPSIS":"545.897","RA_OF_ASC_NODE":"199.2188","GP_ID":"202024209","TLE_LINE2":"2 46360  53.0536 199.2188 0001932  47.0924 313.0227 15.06392849 91827","RCS_SIZE":"LARGE","TLE_LINE1":"1 46360U 20062AM  22115.71183764  .00002187  00000-0  16569-3 0  9995","MEAN_ANOMALY":"313.0227","OBJECT_NAME":"STARLINK-1713","TIME_SYSTEM":"UTC","MEAN_MOTION_DOT":"0.00002187","CENTER_NAME":"EARTH","DECAY_DATE":null,"APOAPSIS":"548.573","MEAN_MOTION":"15.06392849","CLASSIFICATION_TYPE":"U","FILE":"3416090","SITE":"AFETR","OBJECT_TYPE":"PAYLOAD","EPHEMERIS_TYPE":"0","COUNTRY_CODE":"US","MEAN_ELEMENT_THEORY":"SGP4","MEAN_MOTION_DDOT":"0.0000000000000","BSTAR":"0.00016569000000","LAUNCH_DATE":"2020-09-03","EPOCH":"2022-04-25T17:05:02.772096","ECCENTRICITY":"0.00019320","ELEMENT_SET_NO":"999","PERIOD":"95.593","INCLINATION":"53.0536","ARG_OF_PERICENTER":"47.0924","REF_FRAME":"TEME","NORAD_CAT_ID":"46360","OBJECT_ID":"2020-062AM","SEMIMAJOR_AXIS":"6925.370","REV_AT_EPOCH":"9182"},{"TLE_LINE1":"1 46361U 20062AN  22115.61600097 -.00000564  00000-0 -18964-4 0  9999","MEAN_ANOMALY":"298.5332","OBJECT_NAME":"STARLINK-1722","MEAN_MOTION_DOT":"-0.00000564","TIME_SYSTEM":"UTC","CENTER_NAME":"EARTH","DECAY_DATE":null,"PERIAPSIS":"546.136","RA_OF_ASC_NODE":"199.6492","GP_ID":"202024960","TLE_LINE2":"2 46361  53.0520 199.6492 0001617  61.5820 298.5332 15.06386085 91806","RCS_SIZE":"LARGE","OBJECT_TYPE":"PAYLOAD","EPHEMERIS_TYPE":"0","APOAPSIS":"548.376","MEAN_MOTION":"15.06386085","CLASSIFICATION_TYPE":"U","SITE":"AFETR","FILE":"3416090","LAUNCH_DATE":"2020-09-03","BSTAR":"-0.00001896400000","EPOCH":"2022-04-25T14:47:02.483808","ECCENTRICITY":"0.00016170","ELEMENT_SET_NO":"999","COUNTRY_CODE":"US","MEAN_ELEMENT_THEORY":"SGP4","MEAN_MOTION_DDOT":"0.0000000000000","NORAD_CAT_ID":"46361","OBJECT_ID":"2020-062AN","SEMIMAJOR_AXIS":"6925.391","REV_AT_EPOCH":"9180","PERIOD":"95.593","INCLINATION":"53.0520","ARG_OF_PERICENTER":"61.5820","REF_FRAME":"TEME"},{"RCS_SIZE":"LARGE","GP_ID":"201991737","TLE_LINE2":"2 46362  53.0554 200.0388 0001712  45.2158 314.8970 15.06386861 91794","RA_OF_ASC_NODE":"200.0388","PERIAPSIS":"546.068","DECAY_DATE":null,"CENTER_NAME":"EARTH","TIME_SYSTEM":"UTC","MEAN_MOTION_DOT":"-0.00001623","OBJECT_NAME":"STARLINK-1726","MEAN_ANOMALY":"314.8970","TLE_LINE1":"1 46362U 20062AP  22115.52753195 -.00001623  00000-0 -90136-4 0  9996","FILE":"3415659","SITE":"AFETR","CLASSIFICATION_TYPE":"U","MEAN_MOTION":"15.06386861","APOAPSIS":"548.439","EPHEMERIS_TYPE":"0","OBJECT_TYPE":"PAYLOAD","MEAN_MOTION_DDOT":"0.0000000000000","MEAN_ELEMENT_THEORY":"SGP4","COUNTRY_CODE":"US","ELEMENT_SET_NO":"999","ECCENTRICITY":"0.00017120","EPOCH":"2022-04-25T12:39:38.760480","BSTAR":"-0.00009013600000","LAUNCH_DATE":"2020-09-03","REF_FRAME":"TEME","ARG_OF_PERICENTER":"45.2158","INCLINATION":"53.0554","PERIOD":"95.593","REV_AT_EPOCH":"9179","SEMIMAJOR_AXIS":"6925.389","OBJECT_ID":"2020-062AP","NORAD_CAT_ID":"46362"},{"OBJECT_ID":"2020-062AQ","NORAD_CAT_ID":"46363","REV_AT_EPOCH":"9181","SEMIMAJOR_AXIS":"6925.386","PERIOD":"95.593","ARG_OF_PERICENTER":"44.2311","INCLINATION":"53.0534","REF_FRAME":"TEME","EPOCH":"2022-04-25T15:40:06.818880","BSTAR":"-0.00007899500000","LAUNCH_DATE":"2020-09-03","ELEMENT_SET_NO":"999","ECCENTRICITY":"0.00019780","MEAN_ELEMENT_THEORY":"SGP4","COUNTRY_CODE":"US","MEAN_MOTION_DDOT":"0.0000000000000","EPHEMERIS_TYPE":"0","OBJECT_TYPE":"PAYLOAD","APOAPSIS":"548.621","CLASSIFICATION_TYPE":"U","FILE":"3416090","SITE":"AFETR","MEAN_MOTION":"15.06387718","OBJECT_NAME":"STARLINK-1739","MEAN_ANOMALY":"315.8836","TLE_LINE1":"1 46363U 20062AQ  22115.65285670 -.00001458  00000-0 -78995-4 0  9994","DECAY_DATE":null,"TIME_SYSTEM":"UTC","MEAN_MOTION_DOT":"-0.00001458","CENTER_NAME":"EARTH","GP_ID":"202025456","TLE_LINE2":"2 46363  53.0534 199.4664 0001978  44.2311 315.8836 15.06387718 91812","PERIAPSIS":"545.881","RA_OF_ASC_NODE":"199.4664","RCS_SIZE":"LARGE"},{"PERIOD":"95.593","REF_FRAME":"TEME","INCLINATION":"53.0477","ARG_OF_PERICENTER":"149.9383","OBJECT_ID":"2020-062AR","NORAD_CAT_ID":"46364","REV_AT_EPOCH":"9212","SEMIMAJOR_AXIS":"6925.377","MEAN_ELEMENT_THEORY":"SGP4","COUNTRY_CODE":"US","MEAN_MOTION_DDOT":"0.0000000000000","EPOCH":"2022-04-25T20:59:51.707328","LAUNCH_DATE":"2020-09-03","BSTAR":"-0.00000235030000","ELEMENT_SET_NO":"999","ECCENTRICITY":"0.00021080","APOAPSIS":"548.702","SITE":"AFETR","FILE":"3416090","CLASSIFICATION_TYPE":"U","MEAN_MOTION":"15.06390638","EPHEMERIS_TYPE":"0","OBJECT_TYPE":"PAYLOAD","TLE_LINE2":"2 46364  53.0477 178.5163 0002108 149.9383 210.1727 15.06390638 92125","GP_ID":"202024710","RA_OF_ASC_NODE":"178.5163","PERIAPSIS":"545.782","RCS_SIZE":"LARGE","OBJECT_NAME":"STARLINK-1763","MEAN_ANOMALY":"210.1727","TLE_LINE1":"1 46364U 20062AR  22115.87490402 -.00000317  00000-0 -23503-5 0  9999","DECAY_DATE":null,"CENTER_NAME":"EARTH","MEAN_MOTION_DOT":"-0.00000317","TIME_SYSTEM":"UTC"},{"TLE_LINE2":"2 46365  53.0543 199.2717 0001815  38.8385 321.2734 15.06381975 91818","GP_ID":"202025461","PERIAPSIS":"546.012","RA_OF_ASC_NODE":"199.2717","RCS_SIZE":"LARGE","MEAN_ANOMALY":"321.2734","OBJECT_NAME":"STARLINK-1550","TLE_LINE1":"1 46365U 20062AS  22115.69709299 -.00000781  00000-0 -33530-4 0  9992","DECAY_DATE":null,"MEAN_MOTION_DOT":"-0.00000781","TIME_SYSTEM":"UTC","CENTER_NAME":"EARTH","APOAPSIS":"548.526","CLASSIFICATION_TYPE":"U","SITE":"AFETR","FILE":"3416090","MEAN_MOTION":"15.06381975","EPHEMERIS_TYPE":"0","OBJECT_TYPE":"PAYLOAD","MEAN_ELEMENT_THEORY":"SGP4","COUNTRY_CODE":"US","MEAN_MOTION_DDOT":"0.0000000000000","EPOCH":"2022-04-25T16:43:48.834336","LAUNCH_DATE":"2020-09-03","BSTAR":"-0.00003353000000","ELEMENT_SET_NO":"999","ECCENTRICITY":"0.00018150","PERIOD":"95.593","ARG_OF_PERICENTER":"38.8385","INCLINATION":"53.0543","REF_FRAME":"TEME","OBJECT_ID":"2020-062AS","NORAD_CAT_ID":"46365","REV_AT_EPOCH":"9181","SEMIMAJOR_AXIS":"6925.404"},{"EPHEMERIS_TYPE":"0","OBJECT_TYPE":"PAYLOAD","FILE":"3416090","SITE":"AFETR","CLASSIFICATION_TYPE":"U","MEAN_MOTION":"15.06376476","APOAPSIS":"548.338","DECAY_DATE":null,"CENTER_NAME":"EARTH","MEAN_MOTION_DOT":"-0.00000067","TIME_SYSTEM":"UTC","OBJECT_NAME":"STARLINK-1651","MEAN_ANOMALY":"304.1256","TLE_LINE1":"1 46366U 20062AT  22115.61969564 -.00000067  00000-0  14400-4 0  9999","RCS_SIZE":"LARGE","GP_ID":"202025707","TLE_LINE2":"2 46366  53.0545 199.6235 0001520  55.9877 304.1256 15.06376476 91807","RA_OF_ASC_NODE":"199.6235","PERIAPSIS":"546.233","REV_AT_EPOCH":"9180","SEMIMAJOR_AXIS":"6925.421","OBJECT_ID":"2020-062AT","NORAD_CAT_ID":"46366","REF_FRAME":"TEME","ARG_OF_PERICENTER":"55.9877","INCLINATION":"53.0545","PERIOD":"95.594","ELEMENT_SET_NO":"999","ECCENTRICITY":"0.00015200","EPOCH":"2022-04-25T14:52:21.703296","LAUNCH_DATE":"2020-09-03","BSTAR":"0.00001440000000","MEAN_MOTION_DDOT":"0.0000000000000","MEAN_ELEMENT_THEORY":"SGP4","COUNTRY_CODE":"US"},{"RCS_SIZE":"LARGE","TLE_LINE2":"2 46368  53.0522 223.7317 0001877  49.1678 310.9474 15.06394884 91498","GP_ID":"202025957","RA_OF_ASC_NODE":"223.7317","PERIAPSIS":"545.929","DECAY_DATE":null,"CENTER_NAME":"EARTH","MEAN_MOTION_DOT":"-0.00000485","TIME_SYSTEM":"UTC","OBJECT_NAME":"STARLINK-1658","MEAN_ANOMALY":"310.9474","TLE_LINE1":"1 46368U 20062AV  22115.81825206 -.00000485  00000-0 -13672-4 0  9992","FILE":"3416090","SITE":"AFETR","CLASSIFICATION_TYPE":"U","MEAN_MOTION":"15.06394884","APOAPSIS":"548.529","EPHEMERIS_TYPE":"0","OBJECT_TYPE":"PAYLOAD","MEAN_MOTION_DDOT":"0.0000000000000","MEAN_ELEMENT_THEORY":"SGP4","COUNTRY_CODE":"US","ELEMENT_SET_NO":"999","ECCENTRICITY":"0.00018770","EPOCH":"2022-04-25T19:38:16.977984","BSTAR":"-0.00001367200000","LAUNCH_DATE":"2020-09-03","REF_FRAME":"TEME","ARG_OF_PERICENTER":"49.1678","INCLINATION":"53.0522","PERIOD":"95.592","REV_AT_EPOCH":"9149","SEMIMAJOR_AXIS":"6925.364","OBJECT_ID":"2020-062AV","NORAD_CAT_ID":"46368"},{"MEAN_MOTION_DDOT":"0.0000000000000","COUNTRY_CODE":"US","MEAN_ELEMENT_THEORY":"SGP4","ECCENTRICITY":"0.00020260","ELEMENT_SET_NO":"999","LAUNCH_DATE":"2020-09-03","BSTAR":"-0.00007432800000","EPOCH":"2022-04-25T17:09:40.530816","ARG_OF_PERICENTER":"51.8314","INCLINATION":"53.0523","REF_FRAME":"TEME","PERIOD":"95.593","SEMIMAJOR_AXIS":"6925.375","REV_AT_EPOCH":"9147","NORAD_CAT_ID":"46370","OBJECT_ID":"2020-062AX","RCS_SIZE":"LARGE","PERIAPSIS":"545.837","RA_OF_ASC_NODE":"224.2090","GP_ID":"202024210","TLE_LINE2":"2 46370  53.0523 224.2090 0002026  51.8314 308.2858 15.06391398 91471","TIME_SYSTEM":"UTC","MEAN_MOTION_DOT":"-0.00001388","CENTER_NAME":"EARTH","DECAY_DATE":null,"TLE_LINE1":"1 46370U 20062AX  22115.71505244 -.00001388  00000-0 -74328-4 0  9999","MEAN_ANOMALY":"308.2858","OBJECT_NAME":"STARLINK-1670","MEAN_MOTION":"15.06391398","CLASSIFICATION_TYPE":"U","FILE":"3416090","SITE":"AFETR","APOAPSIS":"548.643","OBJECT_TYPE":"PAYLOAD","EPHEMERIS_TYPE":"0"}];
